{"type": "FeatureCollection", "features": [ {"type": "Feature", "properties": {"norad_id": 37834, "name": "INTELSAT 18 (IS-18)", "group": "intelsat", "lat": 0.038842910234560546, "lon": 53.24486609359018, "alt_km": 35790.19819259808, "timestamp": "2025-12-20T09:36:01.299558+00:00", "meta": {"OBJECT_NAME": "INTELSAT 18 (IS-18)", "OBJECT_ID": "2011-056A", "EPOCH": "2025-12-19T19:15:17.492256", "MEAN_MOTION": 1.0027221, "ECCENTRICITY": 0.00016561, "INCLINATION": 0.0348, "RA_OF_ASC_NODE": 279.4074, "ARG_OF_PERICENTER": 6.336, "MEAN_ANOMALY": 271.7233, "EPHEMERIS_TYPE": 0, "CLASSIFICATION_TYPE": "U", "NORAD_CAT_ID": 37834, "ELEMENT_SET_NO": 999, "REV_AT_EPOCH": 5201, "BSTAR": 0, "MEAN_MOTION_DOT": 7.7e-07, "MEAN_MOTION_DDOT": 0}, "tle": {"line1": "1 37834U 11056A   25353.80228579  .00000077  00000+0  00000+0 0  9999", "line2": "2 37834   0.0348 279.4074 0001656   6.3360 271.7233  1.00272210 52019"}}, "geometry": {"type": "Point", "coordinates": [53.24486609359018, 0.038842910234560546]}}, {"type": "Feature", "properties": {"norad_id": 38098, "name": "INTELSAT 22 (IS-22)", "group": "intelsat", "lat": -0.03304945833533096, "lon": -54.66584439583359, "alt_km": 35779.66099572429, "timestamp": "2025-12-20T09:36:01.299571+00:00", "meta": {"OBJECT_NAME": "INTELSAT 22 (IS-22)", "OBJECT_ID": "2012-011A", "EPOCH": "2025-12-20T03:18:05.666112", "MEAN_MOTION": 1.00270553, "ECCENTRICITY": 0.0001812, "INCLINATION": 0.0147, "RA_OF_ASC_NODE": 42.664, "ARG_OF_PERICENTER": 234.5908, "MEAN_ANOMALY": 293.3399, "EPHEMERIS_TYPE": 0, "CLASSIFICATION_TYPE": "U", "NORAD_CAT_ID": 38098, "ELEMENT_SET_NO": 999, "REV_AT_EPOCH": 539, "BSTAR": 0, "MEAN_MOTION_DOT": -3.4e-07, "MEAN_MOTION_DDOT": 0}, "tle": {"line1": "1 38098U 12011A   25354.13756558 -.00000034  00000+0  00000+0 0  9998", "line2": "2 38098   0.0147  42.6640 0001812 234.5908 293.3399  1.00270553  5395"}}, "geometry": {"type": "Point", "coordinates": [-54.66584439583359, -0.03304945833533096]}}, {"type": "Feature", "properties": {"norad_id": 38356, "name": "INTELSAT 19 (IS-19)", "group": "intelsat", "lat": 0.027888430604077908, "lon": 39.25254342510987, "alt_km": 35794.30603244466, "timestamp": "2025-12-20T09:36:01.299583+00:00", "meta": {"OBJECT_NAME": "INTELSAT 19 (IS-19)", "OBJECT_ID": "2012-030A", "EPOCH": "2025-12-19T17:28:37.237728", "MEAN_MOTION": 1.00271271, "ECCENTRICITY": 0.00027409, "INCLINATION": 0.0115, "RA_OF_ASC_NODE": 352.2924, "ARG_OF_PERICENTER": 272.7431, "MEAN_ANOMALY": 251.6929, "EPHEMERIS_TYPE": 0, "CLASSIFICATION_TYPE": "U", "NORAD_CAT_ID": 38356, "ELEMENT_SET_NO": 999, "REV_AT_EPOCH": 4865, "BSTAR": 0, "MEAN_MOTION_DOT": -3.2e-07, "MEAN_MOTION_DDOT": 0}, "tle": {"line1": "1 38356U 12030A   25353.72820877 -.00000032  00000+0  00000+0 0  9994", "line2": "2 38356   0.0115 352.2924 0002740 272.7431 251.6929  1.00271271 48658"}}, "geometry": {"type": "Point", "coordinates": [39.25254342510987, 0.027888430604077908]}}, {"type": "Feature", "properties": {"norad_id": 38740, "name": "INTELSAT 20 (IS-20)", "group": "intelsat", "lat": -0.0033011979661023783, "lon": -58.24548157408594, "alt_km": 35793.342492569165, "timestamp": "2025-12-20T09:36:01.299595+00:00", "meta": {"OBJECT_NAME": "INTELSAT 20 (IS-20)", "OBJECT_ID": "2012-043A", "EPOCH": "2025-12-20T03:17:05.763264", "MEAN_MOTION": 1.00270363, "ECCENTRICITY": 0.0003349, "INCLINATION": 0.0117, "RA_OF_ASC_NODE": 103.5578, "ARG_OF_PERICENTER": 78.8397, "MEAN_ANOMALY": 24.344, "EPHEMERIS_TYPE": 0, "CLASSIFICATION_TYPE": "U", "NORAD_CAT_ID": 38740, "ELEMENT_SET_NO": 999, "REV_AT_EPOCH": 4895, "BSTAR": 0, "MEAN_MOTION_DOT": 0, "MEAN_MOTION_DDOT": 0}, "tle": {"line1": "1 38740U 12043A   25354.13687226  .00000000  00000+0  00000+0 0  9994", "line2": "2 38740   0.0117 103.5578 0003349  78.8397  24.3440  1.00270363 48958"}}, "geometry": {"type": "Point", "coordinates": [-58.24548157408594, -0.0033011979661023783]}}, {"type": "Feature", "properties": {"norad_id": 38749, "name": "INTELSAT 21 (IS-21)", "group": "intelsat", "lat": -0.02269308601725811, "lon": 175.21244439222806, "alt_km": 35785.35924341271, "timestamp": "2025-12-20T09:36:01.299607+00:00", "meta": {"OBJECT_NAME": "INTELSAT 21 (IS-21)", "OBJECT_ID": "2012-045A", "EPOCH": "2025-12-20T03:31:38.627040", "MEAN_MOTION": 1.00272413, "ECCENTRICITY": 0.0001495, "INCLINATION": 0.0263, "RA_OF_ASC_NODE": 288.1597, "ARG_OF_PERICENTER": 331.7134, "MEAN_ANOMALY": 184.0219, "EPHEMERIS_TYPE": 0, "CLASSIFICATION_TYPE": "U", "NORAD_CAT_ID": 38749, "ELEMENT_SET_NO": 999, "REV_AT_EPOCH": 4873, "BSTAR": 0, "MEAN_MOTION_DOT": -2.61e-06, "MEAN_MOTION_DDOT": 0}, "tle": {"line1": "1 38749U 12045A   25354.14697485 -.00000261  00000+0  00000+0 0  9994", "line2": "2 38749   0.0263 288.1597 0001495 331.7134 184.0219  1.00272413 48732"}}, "geometry": {"type": "Point", "coordinates": [175.21244439222806, -0.02269308601725811]}}, {"type": "Feature", "properties": {"norad_id": 38867, "name": "INTELSAT 23 (IS-23)", "group": "intelsat", "lat": 0.012747635655970915, "lon": -179.74435322710252, "alt_km": 35787.57958414794, "timestamp": "2025-12-20T09:36:01.299619+00:00", "meta": {"OBJECT_NAME": "INTELSAT 23 (IS-23)", "OBJECT_ID": "2012-057A", "EPOCH": "2025-12-20T02:42:24.084000", "MEAN_MOTION": 1.00270159, "ECCENTRICITY": 5.89e-05, "INCLINATION": 0.0149, "RA_OF_ASC_NODE": 58.8171, "ARG_OF_PERICENTER": 235.5647, "MEAN_ANOMALY": 142.2033, "EPHEMERIS_TYPE": 0, "CLASSIFICATION_TYPE": "U", "NORAD_CAT_ID": 38867, "ELEMENT_SET_NO": 999, "REV_AT_EPOCH": 4815, "BSTAR": 0, "MEAN_MOTION_DOT": -2.61e-06, "MEAN_MOTION_DDOT": 0}, "tle": {"line1": "1 38867U 12057A   25354.11277875 -.00000261  00000+0  00000+0 0  9992", "line2": "2 38867   0.0149  58.8171 0000589 235.5647 142.2033  1.00270159 48150"}}, "geometry": {"type": "Point", "coordinates": [-179.74435322710252, 0.012747635655970915]}}, {"type": "Feature", "properties": {"norad_id": 39360, "name": "FM-6", "group": "intelsat", "lat": 0.02356032454351137, "lon": 117.03460781101063, "alt_km": 35780.299197047556, "timestamp": "2025-12-20T09:36:01.299631+00:00", "meta": {"OBJECT_NAME": "FM-6", "OBJECT_ID": "2013-058A", "EPOCH": "2025-12-19T13:17:47.071392", "MEAN_MOTION": 1.00268723, "ECCENTRICITY": 0.0003035, "INCLINATION": 0.0116, "RA_OF_ASC_NODE": 64.371, "ARG_OF_PERICENTER": 111.3977, "MEAN_ANOMALY": 355.921, "EPHEMERIS_TYPE": 0, "CLASSIFICATION_TYPE": "U", "NORAD_CAT_ID": 39360, "ELEMENT_SET_NO": 999, "REV_AT_EPOCH": 4427, "BSTAR": 0, "MEAN_MOTION_DOT": 8e-08, "MEAN_MOTION_DDOT": 0}, "tle": {"line1": "1 39360U 13058A   25353.55401703  .00000008  00000+0  00000+0 0  9997", "line2": "2 39360   0.0116  64.3710 0003035 111.3977 355.9210  1.00268723 44273"}}, "geometry": {"type": "Point", "coordinates": [117.03460781101063, 0.02356032454351137]}}, {"type": "Feature", "properties": {"norad_id": 40271, "name": "INTELSAT 30 (IS-30)", "group": "intelsat", "lat": 0.03215765781331012, "lon": 138.189930741082, "alt_km": 35781.572612355514, "timestamp": "2025-12-20T09:36:01.299642+00:00", "meta": {"OBJECT_NAME": "INTELSAT 30 (IS-30)", "OBJECT_ID": "2014-062A", "EPOCH": "2025-12-19T19:39:22.686048", "MEAN_MOTION": 1.00270758, "ECCENTRICITY": 0.00016331, "INCLINATION": 0.0146, "RA_OF_ASC_NODE": 25.4584, "ARG_OF_PERICENTER": 66.8545, "MEAN_ANOMALY": 196.1418, "EPHEMERIS_TYPE": 0, "CLASSIFICATION_TYPE": "U", "NORAD_CAT_ID": 40271, "ELEMENT_SET_NO": 999, "REV_AT_EPOCH": 499, "BSTAR": 0, "MEAN_MOTION_DOT": -1.26e-06, "MEAN_MOTION_DDOT": 0}, "tle": {"line1": "1 40271U 14062A   25353.81901257 -.00000126  00000+0  00000+0 0  9996", "line2": "2 40271   0.0146  25.4584 0001633  66.8545 196.1418  1.00270758  4994"}}, "geometry": {"type": "Point", "coordinates": [138.189930741082, 0.03215765781331012]}}, {"type": "Feature", "properties": {"norad_id": 40333, "name": "DIRECTV 14", "group": "intelsat", "lat": 0.025253094479829638, "lon": 134.01308392765307, "alt_km": 35784.66172682388, "timestamp": "2025-12-20T09:36:01.299655+00:00", "meta": {"OBJECT_NAME": "DIRECTV 14", "OBJECT_ID": "2014-078B", "EPOCH": "2025-12-20T03:19:05.817792", "MEAN_MOTION": 1.00271013, "ECCENTRICITY": 3.95e-05, "INCLINATION": 0.0184, "RA_OF_ASC_NODE": 343.2572, "ARG_OF_PERICENTER": 159.9431, "MEAN_ANOMALY": 256.3349, "EPHEMERIS_TYPE": 0, "CLASSIFICATION_TYPE": "U", "NORAD_CAT_ID": 40333, "ELEMENT_SET_NO": 999, "REV_AT_EPOCH": 4024, "BSTAR": 0, "MEAN_MOTION_DOT": -1.01e-06, "MEAN_MOTION_DDOT": 0}, "tle": {"line1": "1 40333U 14078B   25354.13826178 -.00000101  00000+0  00000+0 0  9999", "line2": "2 40333   0.0184 343.2572 0000395 159.9431 256.3349  1.00271013 40240"}}, "geometry": {"type": "Point", "coordinates": [134.01308392765307, 0.025253094479829638]}}, {"type": "Feature", "properties": {"norad_id": 40663, "name": "DIRECTV 15", "group": "intelsat", "lat": 0.025047212785582605, "lon": 130.36117422047886, "alt_km": 35785.27668114821, "timestamp": "2025-12-20T09:36:01.299666+00:00", "meta": {"OBJECT_NAME": "DIRECTV 15", "OBJECT_ID": "2015-026A", "EPOCH": "2025-12-19T19:37:07.901184", "MEAN_MOTION": 1.00271591, "ECCENTRICITY": 2.084e-05, "INCLINATION": 0.0174, "RA_OF_ASC_NODE": 339.1795, "ARG_OF_PERICENTER": 140.8553, "MEAN_ANOMALY": 160.0394, "EPHEMERIS_TYPE": 0, "CLASSIFICATION_TYPE": "U", "NORAD_CAT_ID": 40663, "ELEMENT_SET_NO": 999, "REV_AT_EPOCH": 3866, "BSTAR": 0, "MEAN_MOTION_DOT": -7.8e-07, "MEAN_MOTION_DDOT": 0}, "tle": {"line1": "1 40663U 15026A   25353.81745256 -.00000078  00000+0  00000+0 0  9993", "line2": "2 40663   0.0174 339.1795 0000208 140.8553 160.0394  1.00271591 38668"}}, "geometry": {"type": "Point", "coordinates": [130.36117422047886, 0.025047212785582605]}}]}